NORAD_CAT_ID,OBJECT_NAME,OBJECT_TYPE,EPOCH,MEAN_MOTION,ECCENTRICITY,INCLINATION,RA_OF_ASC_NODE,ARG_OF_PERICENTER,MEAN_ANOMALY,BSTAR,MEAN_MOTION_DOT,MEAN_MOTION_DDOT,TLE_LINE0,TLE_LINE1,TLE_LINE2,SEMIMAJOR_AXIS,PERIOD,APOGEE,PERIGEE,DECAYED
49765.0,STARLINK-3227,PAYLOAD,2022-04-12 14:00:01,15.08843448,0.0001894,53.2182,65.6276,45.2332,64.6746,-0.001389,-0.00022328,0.0,0 STARLINK-3227,1 49765U 21115AT  22102.58334491 -.00022328  00000-0 -13890-2 0  9997,2 49765  53.2182  65.6276 0001894  45.2332  64.6746 15.08843448  3637,6917.87,95.437,541.045,538.425,0.0
49765.0,STARLINK-3227,PAYLOAD,2022-04-12 22:00:00,15.0884207,0.0001874,53.2186,64.1305,50.2313,71.264,0.00094688,0.00014815,0.0,0 STARLINK-3227,1 49765U 21115AT  22102.91667824  .00014815  00000-0  94688-3 0  9998,2 49765  53.2186  64.1305 0001874  50.2313  71.2640 15.08842070  3582,6917.874,95.437,541.035,538.443,0.0
49765.0,STARLINK-3227,PAYLOAD,2022-04-13 14:00:03,15.08876511,0.0001928,53.2188,61.1382,46.882,97.9498,-0.0021212,-0.00033923,0.0,0 STARLINK-3227,1 49765U 21115AT  22103.58336806 -.00033923  00000-0 -21212-2 0  9990,2 49765  53.2188  61.1382 0001928  46.8820  97.9498 15.08876511 21493,6917.769,95.435,540.9680000000002,538.3,0.0
49765.0,STARLINK-3227,PAYLOAD,2022-04-13 22:00:00,15.08859351,0.000184,53.2193,59.6413,49.892,106.4428,-0.00037827,-6.307e-05,0.0,0 STARLINK-3227,1 49765U 21115AT  22103.91667824 -.00006307  00000-0 -37827-3 0  9990,2 49765  53.2193  59.6413 0001840  49.8920 106.4428 15.08859351  3620,6917.821,95.436,540.9590000000002,538.413,0.0
49765.0,STARLINK-3227,PAYLOAD,2022-04-14 14:00:01,15.08842758,0.0001822,53.2194,56.6489,44.6525,134.884,-0.0014876,-0.00023887,0.0,0 STARLINK-3227,1 49765U 21115AT  22104.58334491 -.00023887  00000-0 -14876-2 0  9995,2 49765  53.2194  56.6489 0001822  44.6525 134.8840 15.08842758 21643,6917.871999999999,95.437,540.997,538.477,0.0
49765.0,STARLINK-3227,PAYLOAD,2022-04-14 22:00:00,15.08837103,0.0001843,53.2198,55.1525,50.3698,140.753,-0.0014059,-0.00022592,0.0,0 STARLINK-3227,1 49765U 21115AT  22104.91667824 -.00022592  00000-0 -14059-2 0  9996,2 49765  53.2198  55.1525 0001843  50.3698 140.7530 15.08837103  3628,6917.889,95.438,541.029,538.479,0.0
49765.0,STARLINK-3227,PAYLOAD,2022-04-15 06:00:00,15.08815766,0.0002038,53.2197,53.6578,45.5872,157.1361,0.0035028,0.00055865,0.0,0 STARLINK-3227,1 49765U 21115AT  22105.25001157  .00055865  00000-0  35028-2 0  9991,2 49765  53.2197  53.6578 0002038  45.5872 157.1361 15.08815766 21743,6917.954000000002,95.439,541.229,538.41,0.0
49765.0,STARLINK-3227,PAYLOAD,2022-04-15 13:03:15,15.0884079,0.0001886,53.2198,52.3381,47.5075,312.6077,-5.6578e-05,-1.189e-05,0.0,0 STARLINK-3227,1 49765U 21115AT  22105.54393348 -.00001189  00000-0 -56578-4 0  9996,2 49765  53.2198  52.3381 0001886  47.5075 312.6077 15.08840790 20688,6917.878000000002,95.438,541.048,538.438,0.0
49765.0,STARLINK-3227,PAYLOAD,2022-04-15 22:00:00,15.08826849,0.0002037,53.2177,50.6771,45.1779,180.688,0.0010718,0.00016805,0.0,0 STARLINK-3227,1 49765U 21115AT  22105.91667824  .00016805  00000-0  10718-2 0  9993,2 49765  53.2177  50.6771 0002037  45.1779 180.6880 15.08826849 21857,6917.920999999999,95.438,541.195,538.376,0.0
49765.0,STARLINK-3227,PAYLOAD,2022-04-16 06:00:00,15.08820857,0.0001934,53.2199,49.1692,44.8561,192.6585,0.0026093,0.00041462,0.0,0 STARLINK-3227,1 49765U 21115AT  22106.25001157  .00041462  00000-0  26093-2 0  9992,2 49765  53.2199  49.1692 0001934  44.8561 192.6585 15.08820857 21900,6917.939,95.439,541.1419999999998,538.466,0.0
49765.0,STARLINK-3227,PAYLOAD,2022-04-16 14:00:01,15.08838552,0.0001725,53.2198,47.6713,47.2498,201.8549,-0.0017761,-0.00028443,0.0,0 STARLINK-3227,1 49765U 21115AT  22106.58334491 -.00028443  00000-0 -17761-2 0  9996,2 49765  53.2198  47.6713 0001725  47.2498 201.8549 15.08838552  3612,6917.885,95.438,540.943,538.556,0.0
49765.0,STARLINK-3227,PAYLOAD,2022-04-16 22:00:01,15.0883765,0.0001705,53.22,46.1754,50.3769,210.3641,-0.00055289,-9.076e-05,0.0,0 STARLINK-3227,1 49765U 21115AT  22106.91668981 -.00009076  00000-0 -55289-3 0  9996,2 49765  53.2200  46.1754 0001705  50.3769 210.3641 15.08837650 22009,6917.888000000001,95.438,540.932,538.573,0.0
49765.0,STARLINK-3227,PAYLOAD,2022-04-17 14:00:01,15.08824441,0.0001808,53.2197,43.1829,50.9472,232.9152,-0.00045331,-7.492e-05,0.0,0 STARLINK-3227,1 49765U 21115AT  22107.58334491 -.00007492  00000-0 -45331-3 0  9993,2 49765  53.2197  43.1829 0001808  50.9472 232.9152 15.08824441  3577,6917.928000000001,95.439,541.044,538.5419999999998,0.0
49765.0,STARLINK-3227,PAYLOAD,2022-04-17 22:00:00,15.08840558,0.0001864,53.2197,41.6872,54.3762,241.0536,-0.00057852,-9.484e-05,0.0,0 STARLINK-3227,1 49765U 21115AT  22107.91667824 -.00009484  00000-0 -57852-3 0  9993,2 49765  53.2197  41.6872 0001864  54.3762 241.0536 15.08840558  3574,6917.879,95.438,541.033,538.4540000000002,0.0
49765.0,STARLINK-3227,PAYLOAD,2022-04-18 08:00:01,15.08833574,0.0001979,53.2193,39.81800000000001,48.1029,351.8133,0.0016383,0.00025877,0.0,0 STARLINK-3227,1 49765U 21115AT  22108.33334491  .00025877  00000-0  16383-2 0  9996,2 49765  53.2193  39.8180 0001979  48.1029 351.8133 15.08833574 22210,6917.9,95.438,541.134,538.396,0.0
49765.0,STARLINK-3227,PAYLOAD,2022-04-18 14:00:01,15.08845372,0.0001842,53.2195,38.6945,53.1477,265.4683,-5.4202e-05,-1.151e-05,0.0,0 STARLINK-3227,1 49765U 21115AT  22108.58334491 -.00001151  00000-0 -54202-4 0  9998,2 49765  53.2195  38.6945 0001842  53.1477 265.4683 15.08845372  3612,6917.864000000001,95.437,541.003,538.455,0.0
49765.0,STARLINK-3227,PAYLOAD,2022-04-18 22:00:00,15.08851732,0.0001867,53.2196,37.1987,53.7644,276.4523,-0.0013352,-0.00021482,0.0,0 STARLINK-3227,1 49765U 21115AT  22108.91667824 -.00021482  00000-0 -13352-2 0  9992,2 49765  53.2196  37.1987 0001867  53.7644 276.4523 15.08851732 22301,6917.845,95.437,541.001,538.418,0.0
49765.0,STARLINK-3227,PAYLOAD,2022-04-19 14:00:01,15.08819007,0.0001776999999999,53.2196,34.2056,50.723,302.7002,0.0014558,0.00022944,0.0,0 STARLINK-3227,1 49765U 21115AT  22109.58334491  .00022944  00000-0  14558-2 0  9998,2 49765  53.2196  34.2056 0001777  50.7230 302.7002 15.08819007  3576,6917.945,95.439,541.039,538.58,0.0
49765.0,STARLINK-3227,PAYLOAD,2022-04-19 22:00:00,15.08855866,0.0001826,53.2197,32.71,51.2202,313.777,-0.0011337,-0.00018294,0.0,0 STARLINK-3227,1 49765U 21115AT  22109.91667824 -.00018294  00000-0 -11337-2 0  9991,2 49765  53.2197  32.7100 0001826  51.2202 313.7770 15.08855866 22455,6917.831999999999,95.437,540.96,538.434,0.0
49765.0,STARLINK-3227,PAYLOAD,2022-04-20 14:00:01,15.08821423,0.000175,53.2198,29.7168,49.3993,338.8035,0.0016300999999999,0.00025737,0.0,0 STARLINK-3227,1 49765U 21115AT  22110.58334491  .00025737  00000-0  16301-2 0  9991,2 49765  53.2198  29.7168 0001750  49.3993 338.8035 15.08821423  3607,6917.937,95.439,541.013,538.592,0.0
49765.0,STARLINK-3227,PAYLOAD,2022-04-20 22:00:00,15.08806321,0.000178,53.2186,28.2283,48.7267,351.0584,0.0007444,0.00011568,0.0,0 STARLINK-3227,1 49765U 21115AT  22110.91667824  .00011568  00000-0  74440-3 0  9993,2 49765  53.2186  28.2283 0001780  48.7267 351.0584 15.08806321  3590,6917.983,95.44,541.08,538.617,0.0
49765.0,STARLINK-3227,PAYLOAD,2022-04-21 06:00:00,15.08777469,0.0001921,53.2178,26.7347,54.3463,357.0292,0.0050534,0.00080923,0.0,0 STARLINK-3227,1 49765U 21115AT  22111.25001157  .00080923  00000-0  50534-2 0  9990,2 49765  53.2178  26.7347 0001921  54.3463 357.0292 15.08777469 22653,6918.071999999999,95.442,541.265,538.6080000000002,0.0
49765.0,STARLINK-3227,PAYLOAD,2022-04-21 14:00:01,15.08822609,0.0001853,53.2201,25.2279,52.7554,10.2076,0.0028779,0.0004579,0.0,0 STARLINK-3227,1 49765U 21115AT  22111.58334491  .00045790  00000-0  28779-2 0  9995,2 49765  53.2201  25.2279 0001853  52.7554  10.2076 15.08822609  3615,6917.934,95.439,541.08,538.5169999999998,0.0
49765.0,STARLINK-3227,PAYLOAD,2022-04-21 22:00:00,15.08874661,0.0001905,53.2203,23.7324,51.90600000000001,22.6538,-0.0035227,-0.0005597,0.0,0 STARLINK-3227,1 49765U 21115AT  22111.91667824 -.00055970  00000-0 -35227-2 0  9990,2 49765  53.2203  23.7324 0001905  51.9060  22.6538 15.08874661  3594,6917.774,95.435,540.957,538.322,0.0
49765.0,STARLINK-3227,PAYLOAD,2022-04-22 14:00:01,15.08833654,0.0001754999999999,53.2202,20.7387,51.3585,46.4318,-0.00056803,-9.315e-05,0.0,0 STARLINK-3227,1 49765U 21115AT  22112.58334491 -.00009315  00000-0 -56803-3 0  9991,2 49765  53.2202  20.7387 0001755  51.3585  46.4318 15.08833654  3607,6917.9,95.438,540.979,538.5509999999998,0.0
49765.0,STARLINK-3227,PAYLOAD,2022-04-22 16:00:00,15.08828446,0.0001764,53.2201,20.3645,53.2511,137.4377,-0.00025266,-4.306e-05,0.0,0 STARLINK-3227,1 49765U 21115AT  22112.66667824 -.00004306  00000-0 -25266-3 0  9993,2 49765  53.2201  20.3645 0001764  53.2511 137.4377 15.08828446 22867,6917.916,95.438,541.001,538.56,0.0
49765.0,STARLINK-3227,PAYLOAD,2022-04-23 14:00:01,15.08797779,0.0001709,53.2201,16.2498,52.1037,80.4406,0.0030751,0.00048936,0.0,0 STARLINK-3227,1 49765U 21115AT  22113.58334491  .00048936  00000-0  30751-2 0  9995,2 49765  53.2201  16.2498 0001709  52.1037  80.4406 15.08797779  3567,6918.009,95.44,541.057,538.692,0.0
49765.0,STARLINK-3227,PAYLOAD,2022-04-23 22:00:00,15.08841958,0.000181,53.2202,14.7548,51.4353,92.6725,-0.00076362,-0.00012421,0.0,0 STARLINK-3227,1 49765U 21115AT  22113.91667824 -.00012421  00000-0 -76362-3 0  9992,2 49765  53.2202  14.7548 0001810  51.4353  92.6725 15.08841958 23057,6917.874,95.437,540.992,538.487,0.0
49765.0,STARLINK-3227,PAYLOAD,2022-04-24 14:00:01,15.08819114,0.0001612,53.2197,11.761,52.1015,115.2174,0.0024427,0.0003878,0.0,0 STARLINK-3227,1 49765U 21115AT  22114.58334491  .00038780  00000-0  24427-2 0  9995,2 49765  53.2197  11.7610 0001612  52.1015 115.2174 15.08819114 23150,6917.944,95.439,540.924,538.694,0.0
